[{"OBJECT_NAME":"ONEWEB-0656","OBJECT_ID":"2023-029X","EPOCH":"2026-05-18T03:05:42.887904","MEAN_MOTION":13.2075331,"ECCENTRICITY":0.0002371,"INCLINATION":87.9164,"RA_OF_ASC_NODE":280.423,"ARG_OF_PERICENTER":103.7446,"MEAN_ANOMALY":256.3952,"EPHEMERIS_TYPE":0,"CLASSIFICATION_TYPE":"U","NORAD_CAT_ID":55817,"ELEMENT_SET_NO":999,"REV_AT_EPOCH":15718,"BSTAR":0.0047319,"MEAN_MOTION_DOT":1.937e-05,"MEAN_MOTION_DDOT":0.0},{"OBJECT_NAME":"ONEWEB-0657","OBJECT_ID":"2023-029Y","EPOCH":"2026-05-18T04:49:41.454336","MEAN_MOTION":13.19725571,"ECCENTRICITY":0.0001818,"INCLINATION":87.9146,"RA_OF_ASC_NODE":310.9541,"ARG_OF_PERICENTER":114.6269,"MEAN_ANOMALY":245.5053,"EPHEMERIS_TYPE":0,"CLASSIFICATION_TYPE":"U","NORAD_CAT_ID":55818,"ELEMENT_SET_NO":999,"REV_AT_EPOCH":15495,"BSTAR":-3.1691000000000005e-05,"MEAN_MOTION_DOT":0.0,"MEAN_MOTION_DDOT":0.0},{"OBJECT_NAME":"ONEWEB-0658","OBJECT_ID":"2023-029Z","EPOCH":"2026-05-18T01:04:30.872064","MEAN_MOTION":13.19725817,"ECCENTRICITY":0.0001418,"INCLINATION":87.9156,"RA_OF_ASC_NODE":310.9584,"ARG_OF_PERICENTER":83.8597,"MEAN_ANOMALY":276.2698,"EPHEMERIS_TYPE":0,"CLASSIFICATION_TYPE":"U","NORAD_CAT_ID":55819,"ELEMENT_SET_NO":999,"REV_AT_EPOCH":15494,"BSTAR":-3.8711e-06,"MEAN_MOTION_DOT":1.1e-07,"MEAN_MOTION_DDOT":0.0},{"OBJECT_NAME":"ONEWEB-0660","OBJECT_ID":"2023-029AA","EPOCH":"2026-05-18T03:16:11.123040","MEAN_MOTION":13.14500973,"ECCENTRICITY":0.000187,"INCLINATION":87.8936,"RA_OF_ASC_NODE":295.6909,"ARG_OF_PERICENTER":85.6239,"MEAN_ANOMALY":274.5105,"EPHEMERIS_TYPE":0,"CLASSIFICATION_TYPE":"U","NORAD_CAT_ID":55820,"ELEMENT_SET_NO":999,"REV_AT_EPOCH":15545,"BSTAR":9.9093e-06,"MEAN_MOTION_DOT":1.6e-07,"MEAN_MOTION_DDOT":0.0},{"OBJECT_NAME":"ONEWEB-0661","OBJECT_ID":"2023-029AB","EPOCH":"2026-05-18T04:06:25.416000","MEAN_MOTION":13.14504414,"ECCENTRICITY":0.0001962,"INCLINATION":87.8925,"RA_OF_ASC_NODE":295.7329,"ARG_OF_PERICENTER":87.7538,"MEAN_ANOMALY":272.3816,"EPHEMERIS_TYPE":0,"CLASSIFICATION_TYPE":"U","NORAD_CAT_ID":55821,"ELEMENT_SET_NO":999,"REV_AT_EPOCH":15544,"BSTAR":-0.00039756000000000004,"MEAN_MOTION_DOT":-1.35e-06,"MEAN_MOTION_DDOT":0.0},{"OBJECT_NAME":"ONEWEB-0662","OBJECT_ID":"2023-029AC","EPOCH":"2026-05-18T03:07:03.118080","MEAN_MOTION":13.14503876,"ECCENTRICITY":0.0001845,"INCLINATION":87.8924,"RA_OF_ASC_NODE":295.7482,"ARG_OF_PERICENTER":85.4422,"MEAN_ANOMALY":274.6918,"EPHEMERIS_TYPE":0,"CLASSIFICATION_TYPE":"U","NORAD_CAT_ID":55822,"ELEMENT_SET_NO":999,"REV_AT_EPOCH":15548,"BSTAR":0.00021705,"MEAN_MOTION_DOT":9.3e-07,"MEAN_MOTION_DDOT":0.0},{"OBJECT_NAME":"ONEWEB-0663","OBJECT_ID":"2023-029AD","EPOCH":"2026-05-18T02:08:18.411072","MEAN_MOTION":13.20866754,"ECCENTRICITY":0.0001685,"INCLINATION":87.9171,"RA_OF_ASC_NODE":280.5039,"ARG_OF_PERICENTER":84.8192,"MEAN_ANOMALY":275.3134,"EPHEMERIS_TYPE":0,"CLASSIFICATION_TYPE":"U","NORAD_CAT_ID":55823,"ELEMENT_SET_NO":999,"REV_AT_EPOCH":15717,"BSTAR":-5.3615999999999996e-05,"MEAN_MOTION_DOT":-9e-08,"MEAN_MOTION_DDOT":0.0},{"OBJECT_NAME":"ONEWEB-0664","OBJECT_ID":"2023-029AE","EPOCH":"2026-05-18T02:46:18.284160","MEAN_MOTION":13.20800319,"ECCENTRICITY":0.0002275,"INCLINATION":87.9152,"RA_OF_ASC_NODE":280.4828,"ARG_OF_PERICENTER":91.1706,"MEAN_ANOMALY":268.9688,"EPHEMERIS_TYPE":0,"CLASSIFICATION_TYPE":"U","NORAD_CAT_ID":55824,"ELEMENT_SET_NO":999,"REV_AT_EPOCH":15717,"BSTAR":-0.010633,"MEAN_MOTION_DOT":-4.31e-05,"MEAN_MOTION_DDOT":0.0},{"OBJECT_NAME":"ONEWEB-0665","OBJECT_ID":"2023-029AF","EPOCH":"2026-05-18T04:01:52.245984","MEAN_MOTION":13.14503787,"ECCENTRICITY":0.0001759,"INCLINATION":87.8925,"RA_OF_ASC_NODE":295.7143,"ARG_OF_PERICENTER":85.2917,"MEAN_ANOMALY":274.8414,"EPHEMERIS_TYPE":0,"CLASSIFICATION_TYPE":"U","NORAD_CAT_ID":55825,"ELEMENT_SET_NO":999,"REV_AT_EPOCH":15546,"BSTAR":-0.00050084,"MEAN_MOTION_DOT":-1.73e-06,"MEAN_MOTION_DDOT":0.0},{"OBJECT_NAME":"ONEWEB-0666","OBJECT_ID":"2023-029AG","EPOCH":"2026-05-18T02:36:38.236896","MEAN_MOTION":13.20811072,"ECCENTRICITY":0.0002067,"INCLINATION":87.91,"RA_OF_ASC_NODE":280.4741,"ARG_OF_PERICENTER":116.6045,"MEAN_ANOMALY":243.5301,"EPHEMERIS_TYPE":0,"CLASSIFICATION_TYPE":"U","NORAD_CAT_ID":55826,"ELEMENT_SET_NO":999,"REV_AT_EPOCH":15718,"BSTAR":-0.0146,"MEAN_MOTION_DOT":-5.923e-05,"MEAN_MOTION_DDOT":0.0},{"OBJECT_NAME":"ONEWEB-0667","OBJECT_ID":"2023-029AH","EPOCH":"2026-05-18T02:29:20.209632","MEAN_MOTION":13.20756268,"ECCENTRICITY":0.0001964,"INCLINATION":87.9175,"RA_OF_ASC_NODE":280.4284,"ARG_OF_PERICENTER":92.7786,"MEAN_ANOMALY":267.3572,"EPHEMERIS_TYPE":0,"CLASSIFICATION_TYPE":"U","NORAD_CAT_ID":55827,"ELEMENT_SET_NO":999,"REV_AT_EPOCH":15717,"BSTAR":0.0052579,"MEAN_MOTION_DOT":2.151e-05,"MEAN_MOTION_DDOT":0.0},{"OBJECT_NAME":"ONEWEB-0669","OBJECT_ID":"2023-029AJ","EPOCH":"2026-05-18T02:22:03.098208","MEAN_MOTION":13.20770561,"ECCENTRICITY":0.0002424,"INCLINATION":87.9164,"RA_OF_ASC_NODE":280.4428,"ARG_OF_PERICENTER":101.969,"MEAN_ANOMALY":258.1715,"EPHEMERIS_TYPE":0,"CLASSIFICATION_TYPE":"U","NORAD_CAT_ID":55828,"ELEMENT_SET_NO":999,"REV_AT_EPOCH":15717,"BSTAR":1.7106e-05,"MEAN_MOTION_DOT":2e-07,"MEAN_MOTION_DDOT":0.0},{"OBJECT_NAME":"ONEWEB-0670","OBJECT_ID":"2023-029AK","EPOCH":"2026-05-18T03:29:53.643264","MEAN_MOTION":13.14503854,"ECCENTRICITY":0.0002126,"INCLINATION":87.8924,"RA_OF_ASC_NODE":295.7367,"ARG_OF_PERICENTER":87.7653,"MEAN_ANOMALY":272.372,"EPHEMERIS_TYPE":0,"CLASSIFICATION_TYPE":"U","NORAD_CAT_ID":55829,"ELEMENT_SET_NO":999,"REV_AT_EPOCH":15548,"BSTAR":-0.0005413900000000001,"MEAN_MOTION_DOT":-1.88e-06,"MEAN_MOTION_DDOT":0.0},{"OBJECT_NAME":"ONEWEB-0671","OBJECT_ID":"2023-029AL","EPOCH":"2026-05-18T04:36:01.717056","MEAN_MOTION":13.19726389,"ECCENTRICITY":0.0001858,"INCLINATION":87.9146,"RA_OF_ASC_NODE":310.957,"ARG_OF_PERICENTER":86.3711,"MEAN_ANOMALY":273.7635,"EPHEMERIS_TYPE":0,"CLASSIFICATION_TYPE":"U","NORAD_CAT_ID":55830,"ELEMENT_SET_NO":999,"REV_AT_EPOCH":15494,"BSTAR":1.9317e-05,"MEAN_MOTION_DOT":2.1e-07,"MEAN_MOTION_DDOT":0.0},{"OBJECT_NAME":"ONEWEB-0672","OBJECT_ID":"2023-029AM","EPOCH":"2026-05-18T02:14:46.660704","MEAN_MOTION":13.20785087,"ECCENTRICITY":0.0002087,"INCLINATION":87.9167,"RA_OF_ASC_NODE":280.4364,"ARG_OF_PERICENTER":113.173,"MEAN_ANOMALY":246.9623,"EPHEMERIS_TYPE":0,"CLASSIFICATION_TYPE":"U","NORAD_CAT_ID":55831,"ELEMENT_SET_NO":999,"REV_AT_EPOCH":15717,"BSTAR":-0.005175999999999999,"MEAN_MOTION_DOT":-2.091e-05,"MEAN_MOTION_DDOT":0.0},{"OBJECT_NAME":"ONEWEB-0673","OBJECT_ID":"2023-029AN","EPOCH":"2026-05-18T04:03:02.834784","MEAN_MOTION":13.19724304,"ECCENTRICITY":0.0001895,"INCLINATION":87.9157,"RA_OF_ASC_NODE":310.951,"ARG_OF_PERICENTER":88.639,"MEAN_ANOMALY":271.496,"EPHEMERIS_TYPE":0,"CLASSIFICATION_TYPE":"U","NORAD_CAT_ID":55832,"ELEMENT_SET_NO":999,"REV_AT_EPOCH":15494,"BSTAR":3.942e-05,"MEAN_MOTION_DOT":2.9e-07,"MEAN_MOTION_DDOT":0.0}]