ONEWEB-0656             
1 55817U 23029X   26138.12896861  .00001937  00000+0  47319-2 0  9998
2 55817  87.9164 280.4230 0002371 103.7446 256.3952 13.20753310157189
ONEWEB-0657             
1 55818U 23029Y   26138.20117424  .00000000  00000+0 -31691-4 0  9998
2 55818  87.9146 310.9541 0001818 114.6269 245.5053 13.19725571154953
ONEWEB-0658             
1 55819U 23029Z   26138.04480176  .00000011  00000+0 -38711-5 0  9991
2 55819  87.9156 310.9584 0001418  83.8597 276.2698 13.19725817154947
ONEWEB-0660             
1 55820U 23029AA  26138.13623985  .00000016  00000+0  99093-5 0  9994
2 55820  87.8936 295.6909 0001870  85.6239 274.5105 13.14500973155459
ONEWEB-0661             
1 55821U 23029AB  26138.17112750 -.00000135  00000+0 -39756-3 0  9994
2 55821  87.8925 295.7329 0001962  87.7538 272.3816 13.14504414155440
ONEWEB-0662             
1 55822U 23029AC  26138.12989720  .00000093  00000+0  21705-3 0  9995
2 55822  87.8924 295.7482 0001845  85.4422 274.6918 13.14503876155480
ONEWEB-0663             
1 55823U 23029AD  26138.08910198 -.00000009  00000+0 -53616-4 0  9990
2 55823  87.9171 280.5039 0001685  84.8192 275.3134 13.20866754157175
ONEWEB-0664             
1 55824U 23029AE  26138.11548940 -.00004310  00000+0 -10633-1 0  9995
2 55824  87.9152 280.4828 0002275  91.1706 268.9688 13.20800319157175
ONEWEB-0665             
1 55825U 23029AF  26138.16796581 -.00000173  00000+0 -50084-3 0  9996
2 55825  87.8925 295.7143 0001759  85.2917 274.8414 13.14503787155461
ONEWEB-0666             
1 55826U 23029AG  26138.10877589 -.00005923  00000+0 -14600-1 0  9999
2 55826  87.9100 280.4741 0002067 116.6045 243.5301 13.20811072157182
ONEWEB-0667             
1 55827U 23029AH  26138.10370613  .00002151  00000+0  52579-2 0  9992
2 55827  87.9175 280.4284 0001964  92.7786 267.3572 13.20756268157176
ONEWEB-0669             
1 55828U 23029AJ  26138.09864697  .00000020  00000+0  17106-4 0  9993
2 55828  87.9164 280.4428 0002424 101.9690 258.1715 13.20770561157173
ONEWEB-0670             
1 55829U 23029AK  26138.14575976 -.00000188  00000+0 -54139-3 0  9992
2 55829  87.8924 295.7367 0002126  87.7653 272.3720 13.14503854155485
ONEWEB-0671             
1 55830U 23029AL  26138.19168654  .00000021  00000+0  19317-4 0  9994
2 55830  87.9146 310.9570 0001858  86.3711 273.7635 13.19726389154946
ONEWEB-0672             
1 55831U 23029AM  26138.09359561 -.00002091  00000+0 -51760-2 0  9990
2 55831  87.9167 280.4364 0002087 113.1730 246.9623 13.20785087157176
ONEWEB-0673             
1 55832U 23029AN  26138.16878281  .00000029  00000+0  39420-4 0  9992
2 55832  87.9157 310.9510 0001895  88.6390 271.4960 13.19724304154944
